{
  "type": "FeatureCollection",
  "features": [
    {
      "type": "Feature",
      "properties": {
        "norad_id": 30700,
        "name": "FENGYUN 1C DEB",
        "group": "fengyun-1c-debris",
        "lat": -20.898093037994222,
        "lon": -175.93349438435777,
        "alt_km": 766.4276811685259,
        "timestamp": "2025-12-04T19:33:59.881160+00:00",
        "meta_object_name": "FENGYUN 1C DEB",
        "meta_object_id": "1999-025ARJ",
        "meta_epoch": "2025-12-03T07:12:35.856000",
        "meta_mean_motion": 14.23780889,
        "meta_eccentricity": 0.0086694,
        "meta_inclination": 98.5427,
        "meta_ra_of_asc_node": 5.885,
        "meta_arg_of_pericenter": 170.6255,
        "meta_mean_anomaly": 189.6567,
        "meta_ephemeris_type": 0,
        "meta_classification_type": "U",
        "meta_norad_cat_id": 30700,
        "meta_element_set_no": 999,
        "meta_rev_at_epoch": 97435,
        "meta_bstar": 0.00026931,
        "meta_mean_motion_dot": 5.98e-06,
        "meta_mean_motion_ddot": 0,
        "tle_line1": "1 30700U 99025ARJ 25337.30041500  .00000598  00000+0  26931-3 0  9993",
        "tle_line2": "2 30700  98.5427   5.8850 0086694 170.6255 189.6567 14.23780889974352"
      },
      "geometry": {
        "type": "Point",
        "coordinates": [
          -175.93349438435777,
          -20.898093037994222
        ]
      }
    },
    {
      "type": "Feature",
      "properties": {
        "norad_id": 30701,
        "name": "FENGYUN 1C DEB",
        "group": "fengyun-1c-debris",
        "lat": 43.16852887525698,
        "lon": -151.41403261067273,
        "alt_km": 817.1519453881228,
        "timestamp": "2025-12-04T19:33:59.881169+00:00",
        "meta_object_name": "FENGYUN 1C DEB",
        "meta_object_id": "1999-025ARK",
        "meta_epoch": "2025-12-03T09:32:04.223904",
        "meta_mean_motion": 14.13933415,
        "meta_eccentricity": 0.00355201,
        "meta_inclination": 98.7197,
        "meta_ra_of_asc_node": 18.9258,
        "meta_arg_of_pericenter": 128.665,
        "meta_mean_anomaly": 353.5423,
        "meta_ephemeris_type": 0,
        "meta_classification_type": "U",
        "meta_norad_cat_id": 30701,
        "meta_element_set_no": 999,
        "meta_rev_at_epoch": 96987,
        "meta_bstar": 2.887759e-05,
        "meta_mean_motion_dot": 1.2e-07,
        "meta_mean_motion_ddot": 0,
        "tle_line1": "1 30701U 99025ARK 25337.39727111  .00000012  00000+0  28878-4 0  9996",
        "tle_line2": "2 30701  98.7197  18.9258 0035520 128.6650 353.5423 14.13933415969878"
      },
      "geometry": {
        "type": "Point",
        "coordinates": [
          -151.41403261067273,
          43.16852887525698
        ]
      }
    },
    {
      "type": "Feature",
      "properties": {
        "norad_id": 30702,
        "name": "FENGYUN 1C DEB",
        "group": "fengyun-1c-debris",
        "lat": 14.818011094873963,
        "lon": -3.4034452868016554,
        "alt_km": 850.5720245481461,
        "timestamp": "2025-12-04T19:33:59.881178+00:00",
        "meta_object_name": "FENGYUN 1C DEB",
        "meta_object_id": "1999-025ARL",
        "meta_epoch": "2025-12-04T07:36:43.187328",
        "meta_mean_motion": 14.03563213,
        "meta_eccentricity": 0.00684516,
        "meta_inclination": 98.7705,
        "meta_ra_of_asc_node": 358.4568,
        "meta_arg_of_pericenter": 325.8009,
        "meta_mean_anomaly": 53.2308,
        "meta_ephemeris_type": 0,
        "meta_classification_type": "U",
        "meta_norad_cat_id": 30702,
        "meta_element_set_no": 999,
        "meta_rev_at_epoch": 96044,
        "meta_bstar": 0.0011459567,
        "meta_mean_motion_dot": 1.792e-05,
        "meta_mean_motion_ddot": 0,
        "tle_line1": "1 30702U 99025ARL 25338.31716652  .00001792  00000+0  11460-2 0  9991",
        "tle_line2": "2 30702  98.7705 358.4568 0068451 325.8009  53.2308 14.03563213960442"
      },
      "geometry": {
        "type": "Point",
        "coordinates": [
          -3.4034452868016554,
          14.818011094873963
        ]
      }
    },
    {
      "type": "Feature",
      "properties": {
        "norad_id": 30703,
        "name": "FENGYUN 1C DEB",
        "group": "fengyun-1c-debris",
        "lat": 28.944774756843618,
        "lon": -41.51579143125627,
        "alt_km": 803.2666590776926,
        "timestamp": "2025-12-04T19:33:59.881186+00:00",
        "meta_object_name": "FENGYUN 1C DEB",
        "meta_object_id": "1999-025ARM",
        "meta_epoch": "2025-12-03T21:43:46.657632",
        "meta_mean_motion": 14.19246261,
        "meta_eccentricity": 0.01182671,
        "meta_inclination": 99.1409,
        "meta_ra_of_asc_node": 322.6545,
        "meta_arg_of_pericenter": 317.152,
        "meta_mean_anomaly": 104.7477,
        "meta_ephemeris_type": 0,
        "meta_classification_type": "U",
        "meta_norad_cat_id": 30703,
        "meta_element_set_no": 999,
        "meta_rev_at_epoch": 96415,
        "meta_bstar": 0.002570031,
        "meta_mean_motion_dot": 5.734e-05,
        "meta_mean_motion_ddot": 0,
        "tle_line1": "1 30703U 99025ARM 25337.90540113  .00005734  00000+0  25700-2 0  9995",
        "tle_line2": "2 30703  99.1409 322.6545 0118267 317.1520 104.7477 14.19246261964159"
      },
      "geometry": {
        "type": "Point",
        "coordinates": [
          -41.51579143125627,
          28.944774756843618
        ]
      }
    },
    {
      "type": "Feature",
      "properties": {
        "norad_id": 30704,
        "name": "FENGYUN 1C DEB",
        "group": "fengyun-1c-debris",
        "lat": 74.90417947414227,
        "lon": -166.85356313219023,
        "alt_km": 823.6087477803139,
        "timestamp": "2025-12-04T19:33:59.881195+00:00",
        "meta_object_name": "FENGYUN 1C DEB",
        "meta_object_id": "1999-025ARN",
        "meta_epoch": "2025-12-03T11:15:57.215808",
        "meta_mean_motion": 14.0203012,
        "meta_eccentricity": 0.00816479,
        "meta_inclination": 98.8706,
        "meta_ra_of_asc_node": 336.4602,
        "meta_arg_of_pericenter": 125.4208,
        "meta_mean_anomaly": 27.8751,
        "meta_ephemeris_type": 0,
        "meta_classification_type": "U",
        "meta_norad_cat_id": 30704,
        "meta_element_set_no": 999,
        "meta_rev_at_epoch": 95981,
        "meta_bstar": 0.00051711765,
        "meta_mean_motion_dot": 7.7e-06,
        "meta_mean_motion_ddot": 0,
        "tle_line1": "1 30704U 99025ARN 25337.46941222  .00000770  00000+0  51712-3 0  9991",
        "tle_line2": "2 30704  98.8706 336.4602 0081647 125.4208  27.8751 14.02030120959811"
      },
      "geometry": {
        "type": "Point",
        "coordinates": [
          -166.85356313219023,
          74.90417947414227
        ]
      }
    },
    {
      "type": "Feature",
      "properties": {
        "norad_id": 30705,
        "name": "FENGYUN 1C DEB",
        "group": "fengyun-1c-debris",
        "lat": 28.176330042981764,
        "lon": 74.06938714557157,
        "alt_km": 949.9854024951828,
        "timestamp": "2025-12-04T19:33:59.881204+00:00",
        "meta_object_name": "FENGYUN 1C DEB",
        "meta_object_id": "1999-025ARP",
        "meta_epoch": "2025-12-04T05:47:48.066720",
        "meta_mean_motion": 13.81253251,
        "meta_eccentricity": 0.01986336,
        "meta_inclination": 102.1809,
        "meta_ra_of_asc_node": 79.9751,
        "meta_arg_of_pericenter": 302.341,
        "meta_mean_anomaly": 112.7559,
        "meta_ephemeris_type": 0,
        "meta_classification_type": "U",
        "meta_norad_cat_id": 30705,
        "meta_element_set_no": 999,
        "meta_rev_at_epoch": 93892,
        "meta_bstar": 0.003986213,
        "meta_mean_motion_dot": 4.847e-05,
        "meta_mean_motion_ddot": 0,
        "tle_line1": "1 30705U 99025ARP 25338.24152855  .00004847  00000+0  39862-2 0  9995",
        "tle_line2": "2 30705 102.1809  79.9751 0198633 302.3410 112.7559 13.81253251938921"
      },
      "geometry": {
        "type": "Point",
        "coordinates": [
          74.06938714557157,
          28.176330042981764
        ]
      }
    },
    {
      "type": "Feature",
      "properties": {
        "norad_id": 30706,
        "name": "FENGYUN 1C DEB",
        "group": "fengyun-1c-debris",
        "lat": 56.94632339854323,
        "lon": 67.34818298038147,
        "alt_km": 782.0719829584377,
        "timestamp": "2025-12-04T19:33:59.881213+00:00",
        "meta_object_name": "FENGYUN 1C DEB",
        "meta_object_id": "1999-025ARQ",
        "meta_epoch": "2025-12-04T05:31:44.320512",
        "meta_mean_motion": 14.26371404,
        "meta_eccentricity": 0.00260492,
        "meta_inclination": 99.0661,
        "meta_ra_of_asc_node": 232.5395,
        "meta_arg_of_pericenter": 153.109,
        "meta_mean_anomaly": 207.1445,
        "meta_ephemeris_type": 0,
        "meta_classification_type": "U",
        "meta_norad_cat_id": 30706,
        "meta_element_set_no": 999,
        "meta_rev_at_epoch": 97506,
        "meta_bstar": 0.0017784147,
        "meta_mean_motion_dot": 4.245e-05,
        "meta_mean_motion_ddot": 0,
        "tle_line1": "1 30706U 99025ARQ 25338.23037408  .00004245  00000+0  17784-2 0  9992",
        "tle_line2": "2 30706  99.0661 232.5395 0026049 153.1090 207.1445 14.26371404975060"
      },
      "geometry": {
        "type": "Point",
        "coordinates": [
          67.34818298038147,
          56.94632339854323
        ]
      }
    }
  ]
}